ATLAS CENTAUR 2         
1 00694U 63047A   26024.57259370  .00001982  00000+0  23312-3 0  9994
2 00694  30.3532  82.1650 0548183  51.5383 313.3124 14.11938633125388
THOR AGENA D R/B        
1 00733U 64002A   26024.28550625  .00000401  00000+0  16006-3 0  9992
2 00733  99.1226  35.2071 0033400  29.3116 330.9932 14.33989191231939
SL-3 R/B                
1 00877U 64053B   26024.61960319  .00000601  00000+0  14067-3 0  9996
2 00877  65.0770 100.4372 0077314 306.2679  53.1294 14.61318705260357
SL-8 R/B                
1 02802U 67045B   26024.56179272  .00000468  00000+0  13696-3 0  9992
2 02802  74.0102  70.5004 0062824  88.3509 272.4844 14.45581606 82640
SL-8 R/B                
1 03230U 68040B   26024.44828560  .00005651  00000+0  42099-3 0  9990
2 03230  74.0308  44.0671 0025993 239.5806 120.2814 15.02886980 83360
OAO 2                   
1 03597U 68110A   26024.76856878  .00000496  00000+0  13875-3 0  9994
2 03597  34.9924 150.4383 0005758 211.7176 148.3168 14.47276271 12736
ISIS 1                  
1 03669U 69009A   26024.81547194  .00000617  00000+0  43299-3 0  9994
2 03669  88.4537 160.0896 1707852 177.6918 183.3450 11.30387674343576
SERT 2                  
1 04327U 70009A   26024.80436580  .00000083  00000+0  17042-3 0  9997
2 04327  99.2705 330.3128 0004040 281.0174 107.5654 13.58724775773937
SL-3 R/B                
1 05118U 71028B   26024.89187192  .00046451  00000+0  62072-3 0  9991
2 05118  81.2365 105.9848 0017996  87.0123 273.3187 15.57655565981841
ASTEX 1                 
1 05560U 71089A   26024.74729779  .00001082  00000+0  27539-3 0  9996
2 05560  92.7157 137.5400 0013925 227.3575 132.6458 14.50709520855932
SL-8 R/B                
1 05730U 71119B   26024.59370908  .00008787  00000+0  45691-3 0  9996
2 05730  73.8861 258.0702 0555469 233.7080 121.1557 14.36658638649158
OAO 3 (COPERNICUS)      
1 06153U 72065A   26024.84783675  .00000691  00000+0  14635-3 0  9994
2 06153  35.0039 187.0914 0006355 167.9123 341.1076 14.59953574839784
