CCSDS_OMM_VERS = 2.0
CREATION_DATE  = 
ORIGINATOR     = 

OBJECT_NAME    = ATLAS CENTAUR 2
OBJECT_ID      = 1963-047A
CENTER_NAME    = EARTH
REF_FRAME      = TEME
TIME_SYSTEM    = UTC
MEAN_ELEMENT_THEORY = SGP/SGP4

EPOCH          = 2026-01-24T13:44:32.095680
MEAN_MOTION    = 14.11938633
ECCENTRICITY   = .05481836
INCLINATION    = 30.3532
RA_OF_ASC_NODE = 82.1650
ARG_OF_PERICENTER = 51.5383
MEAN_ANOMALY   = 313.3124

EPHEMERIS_TYPE = 0
CLASSIFICATION_TYPE = U
NORAD_CAT_ID   = 694
ELEMENT_SET_NO = 999
REV_AT_EPOCH   = 12538
BSTAR          = .23312385E-3
MEAN_MOTION_DOT = .1982E-4
MEAN_MOTION_DDOT = 0

CCSDS_OMM_VERS = 2.0
CREATION_DATE  = 
ORIGINATOR     = 

OBJECT_NAME    = THOR AGENA D R/B
OBJECT_ID      = 1964-002A
CENTER_NAME    = EARTH
REF_FRAME      = TEME
TIME_SYSTEM    = UTC
MEAN_ELEMENT_THEORY = SGP/SGP4

EPOCH          = 2026-01-24T06:51:07.740000
MEAN_MOTION    = 14.33989191
ECCENTRICITY   = .00334
INCLINATION    = 99.1226
RA_OF_ASC_NODE = 35.2071
ARG_OF_PERICENTER = 29.3116
MEAN_ANOMALY   = 330.9932

EPHEMERIS_TYPE = 0
CLASSIFICATION_TYPE = U
NORAD_CAT_ID   = 733
ELEMENT_SET_NO = 999
REV_AT_EPOCH   = 23193
BSTAR          = .16006E-3
MEAN_MOTION_DOT = .401E-5
MEAN_MOTION_DDOT = 0

CCSDS_OMM_VERS = 2.0
CREATION_DATE  = 
ORIGINATOR     = 

OBJECT_NAME    = SL-3 R/B
OBJECT_ID      = 1964-053B
CENTER_NAME    = EARTH
REF_FRAME      = TEME
TIME_SYSTEM    = UTC
MEAN_ELEMENT_THEORY = SGP/SGP4

EPOCH          = 2026-01-24T14:52:13.715616
MEAN_MOTION    = 14.61318705
ECCENTRICITY   = .00773141
INCLINATION    = 65.0770
RA_OF_ASC_NODE = 100.4372
ARG_OF_PERICENTER = 306.2679
MEAN_ANOMALY   = 53.1294

EPHEMERIS_TYPE = 0
CLASSIFICATION_TYPE = U
NORAD_CAT_ID   = 877
ELEMENT_SET_NO = 999
REV_AT_EPOCH   = 26035
BSTAR          = .14066553E-3
MEAN_MOTION_DOT = .601E-5
MEAN_MOTION_DDOT = 0

CCSDS_OMM_VERS = 2.0
CREATION_DATE  = 
ORIGINATOR     = 

OBJECT_NAME    = SL-8 R/B
OBJECT_ID      = 1967-045B
CENTER_NAME    = EARTH
REF_FRAME      = TEME
TIME_SYSTEM    = UTC
MEAN_ELEMENT_THEORY = SGP/SGP4

EPOCH          = 2026-01-24T13:28:58.891008
MEAN_MOTION    = 14.45581606
ECCENTRICITY   = .0062824
INCLINATION    = 74.0102
RA_OF_ASC_NODE = 70.5004
ARG_OF_PERICENTER = 88.3509
MEAN_ANOMALY   = 272.4844

EPHEMERIS_TYPE = 0
CLASSIFICATION_TYPE = U
NORAD_CAT_ID   = 2802
ELEMENT_SET_NO = 999
REV_AT_EPOCH   = 8264
BSTAR          = .13695812E-3
MEAN_MOTION_DOT = .468E-5
MEAN_MOTION_DDOT = 0

CCSDS_OMM_VERS = 2.0
CREATION_DATE  = 
ORIGINATOR     = 

OBJECT_NAME    = SL-8 R/B
OBJECT_ID      = 1968-040B
CENTER_NAME    = EARTH
REF_FRAME      = TEME
TIME_SYSTEM    = UTC
MEAN_ELEMENT_THEORY = SGP/SGP4

EPOCH          = 2026-01-24T10:45:31.875840
MEAN_MOTION    = 15.02886980
ECCENTRICITY   = .00259934
INCLINATION    = 74.0308
RA_OF_ASC_NODE = 44.0671
ARG_OF_PERICENTER = 239.5806
MEAN_ANOMALY   = 120.2814

EPHEMERIS_TYPE = 0
CLASSIFICATION_TYPE = U
NORAD_CAT_ID   = 3230
ELEMENT_SET_NO = 999
REV_AT_EPOCH   = 8336
BSTAR          = .42099242E-3
MEAN_MOTION_DOT = .5651E-4
MEAN_MOTION_DDOT = 0

CCSDS_OMM_VERS = 2.0
CREATION_DATE  = 
ORIGINATOR     = 

OBJECT_NAME    = OAO 2
OBJECT_ID      = 1968-110A
CENTER_NAME    = EARTH
REF_FRAME      = TEME
TIME_SYSTEM    = UTC
MEAN_ELEMENT_THEORY = SGP/SGP4

EPOCH          = 2026-01-24T18:26:44.342592
MEAN_MOTION    = 14.47276271
ECCENTRICITY   = .00057585
INCLINATION    = 34.9924
RA_OF_ASC_NODE = 150.4383
ARG_OF_PERICENTER = 211.7176
MEAN_ANOMALY   = 148.3168

EPHEMERIS_TYPE = 0
CLASSIFICATION_TYPE = U
NORAD_CAT_ID   = 3597
ELEMENT_SET_NO = 999
REV_AT_EPOCH   = 1273
BSTAR          = .13875408E-3
MEAN_MOTION_DOT = .496E-5
MEAN_MOTION_DDOT = 0

CCSDS_OMM_VERS = 2.0
CREATION_DATE  = 
ORIGINATOR     = 

OBJECT_NAME    = ISIS 1
OBJECT_ID      = 1969-009A
CENTER_NAME    = EARTH
REF_FRAME      = TEME
TIME_SYSTEM    = UTC
MEAN_ELEMENT_THEORY = SGP/SGP4

EPOCH          = 2026-01-24T19:34:16.775616
MEAN_MOTION    = 11.30387674
ECCENTRICITY   = .17078526
INCLINATION    = 88.4537
RA_OF_ASC_NODE = 160.0896
ARG_OF_PERICENTER = 177.6918
MEAN_ANOMALY   = 183.3450

EPHEMERIS_TYPE = 0
CLASSIFICATION_TYPE = U
NORAD_CAT_ID   = 3669
ELEMENT_SET_NO = 999
REV_AT_EPOCH   = 34357
BSTAR          = .43298979E-3
MEAN_MOTION_DOT = .617E-5
MEAN_MOTION_DDOT = 0

CCSDS_OMM_VERS = 2.0
CREATION_DATE  = 
ORIGINATOR     = 

OBJECT_NAME    = SERT 2
OBJECT_ID      = 1970-009A
CENTER_NAME    = EARTH
REF_FRAME      = TEME
TIME_SYSTEM    = UTC
MEAN_ELEMENT_THEORY = SGP/SGP4

EPOCH          = 2026-01-24T19:18:17.205120
MEAN_MOTION    = 13.58724775
ECCENTRICITY   = .00040403
INCLINATION    = 99.2705
RA_OF_ASC_NODE = 330.3128
ARG_OF_PERICENTER = 281.0174
MEAN_ANOMALY   = 107.5654

EPHEMERIS_TYPE = 0
CLASSIFICATION_TYPE = U
NORAD_CAT_ID   = 4327
ELEMENT_SET_NO = 999
REV_AT_EPOCH   = 77393
BSTAR          = .17042377E-3
MEAN_MOTION_DOT = .83E-6
MEAN_MOTION_DDOT = 0

CCSDS_OMM_VERS = 2.0
CREATION_DATE  = 
ORIGINATOR     = 

OBJECT_NAME    = SL-3 R/B
OBJECT_ID      = 1971-028B
CENTER_NAME    = EARTH
REF_FRAME      = TEME
TIME_SYSTEM    = UTC
MEAN_ELEMENT_THEORY = SGP/SGP4

EPOCH          = 2026-01-24T21:24:17.733888
MEAN_MOTION    = 15.57655565
ECCENTRICITY   = .00179963
INCLINATION    = 81.2365
RA_OF_ASC_NODE = 105.9848
ARG_OF_PERICENTER = 87.0123
MEAN_ANOMALY   = 273.3187

EPHEMERIS_TYPE = 0
CLASSIFICATION_TYPE = U
NORAD_CAT_ID   = 5118
ELEMENT_SET_NO = 999
REV_AT_EPOCH   = 98184
BSTAR          = .62071705E-3
MEAN_MOTION_DOT = .46451E-3
MEAN_MOTION_DDOT = 0

CCSDS_OMM_VERS = 2.0
CREATION_DATE  = 
ORIGINATOR     = 

OBJECT_NAME    = ASTEX 1
OBJECT_ID      = 1971-089A
CENTER_NAME    = EARTH
REF_FRAME      = TEME
TIME_SYSTEM    = UTC
MEAN_ELEMENT_THEORY = SGP/SGP4

EPOCH          = 2026-01-24T17:56:06.529056
MEAN_MOTION    = 14.50709520
ECCENTRICITY   = .00139255
INCLINATION    = 92.7157
RA_OF_ASC_NODE = 137.5400
ARG_OF_PERICENTER = 227.3575
MEAN_ANOMALY   = 132.6458

EPHEMERIS_TYPE = 0
CLASSIFICATION_TYPE = U
NORAD_CAT_ID   = 5560
ELEMENT_SET_NO = 999
REV_AT_EPOCH   = 85593
BSTAR          = .27539074E-3
MEAN_MOTION_DOT = .1082E-4
MEAN_MOTION_DDOT = 0

CCSDS_OMM_VERS = 2.0
CREATION_DATE  = 
ORIGINATOR     = 

OBJECT_NAME    = SL-8 R/B
OBJECT_ID      = 1971-119B
CENTER_NAME    = EARTH
REF_FRAME      = TEME
TIME_SYSTEM    = UTC
MEAN_ELEMENT_THEORY = SGP/SGP4

EPOCH          = 2026-01-24T14:14:56.464512
MEAN_MOTION    = 14.36658638
ECCENTRICITY   = .05554696
INCLINATION    = 73.8861
RA_OF_ASC_NODE = 258.0702
ARG_OF_PERICENTER = 233.7080
MEAN_ANOMALY   = 121.1557

EPHEMERIS_TYPE = 0
CLASSIFICATION_TYPE = U
NORAD_CAT_ID   = 5730
ELEMENT_SET_NO = 999
REV_AT_EPOCH   = 64915
BSTAR          = .45690928E-3
MEAN_MOTION_DOT = .8787E-4
MEAN_MOTION_DDOT = 0

CCSDS_OMM_VERS = 2.0
CREATION_DATE  = 
ORIGINATOR     = 

OBJECT_NAME    = OAO 3 (COPERNICUS)
OBJECT_ID      = 1972-065A
CENTER_NAME    = EARTH
REF_FRAME      = TEME
TIME_SYSTEM    = UTC
MEAN_ELEMENT_THEORY = SGP/SGP4

EPOCH          = 2026-01-24T20:20:53.095200
MEAN_MOTION    = 14.59953574
ECCENTRICITY   = .00063553
INCLINATION    = 35.0039
RA_OF_ASC_NODE = 187.0914
ARG_OF_PERICENTER = 167.9123
MEAN_ANOMALY   = 341.1076

EPHEMERIS_TYPE = 0
CLASSIFICATION_TYPE = U
NORAD_CAT_ID   = 6153
ELEMENT_SET_NO = 999
REV_AT_EPOCH   = 83978
BSTAR          = .14635124E-3
MEAN_MOTION_DOT = .691E-5
MEAN_MOTION_DDOT = 0

